[{"OBJECT_NAME":"FLOCK 4G-2","OBJECT_ID":"2025-009BE","EPOCH":"2026-03-09T15:53:23.273952","MEAN_MOTION":15.2767526,"ECCENTRICITY":0.00031811,"INCLINATION":97.4044,"RA_OF_ASC_NODE":151.2221,"ARG_OF_PERICENTER":329.2677,"MEAN_ANOMALY":30.8376,"EPHEMERIS_TYPE":0,"CLASSIFICATION_TYPE":"U","NORAD_CAT_ID":62661,"ELEMENT_SET_NO":999,"REV_AT_EPOCH":12132,"BSTAR":0.00051068481,"MEAN_MOTION_DOT":0.00013752,"MEAN_MOTION_DDOT":0},{"OBJECT_NAME":"STARLINK-36067","OBJECT_ID":"2025-288G","EPOCH":"2026-03-09T21:49:15.652416","MEAN_MOTION":15.27574345,"ECCENTRICITY":0.0001357,"INCLINATION":43.0022,"RA_OF_ASC_NODE":21.9852,"ARG_OF_PERICENTER":259.2517,"MEAN_ANOMALY":100.8182,"EPHEMERIS_TYPE":0,"CLASSIFICATION_TYPE":"U","NORAD_CAT_ID":66965,"ELEMENT_SET_NO":999,"REV_AT_EPOCH":1532,"BSTAR":0.0010473701,"MEAN_MOTION_DOT":0.00028666,"MEAN_MOTION_DDOT":0}]
